{"type": "FeatureCollection", "features": [ {"type": "Feature", "properties": {"norad_id": 30859, "name": "FENGYUN 1C DEB", "group": "fengyun-1c-debris", "lat": 65.63859791210287, "lon": 18.80359852314221, "alt_km": 705.8291520834455, "timestamp": "2025-12-14T20:40:32.050872+00:00", "meta": {"OBJECT_NAME": "FENGYUN 1C DEB", "OBJECT_ID": "1999-025AWV", "EPOCH": "2025-12-13T09:34:07.097664", "MEAN_MOTION": 14.49096664, "ECCENTRICITY": 0.00309861, "INCLINATION": 98.9223, "RA_OF_ASC_NODE": 37.5581, "ARG_OF_PERICENTER": 28.7881, "MEAN_ANOMALY": 331.5013, "EPHEMERIS_TYPE": 0, "CLASSIFICATION_TYPE": "U", "NORAD_CAT_ID": 30859, "ELEMENT_SET_NO": 999, "REV_AT_EPOCH": 97044, "BSTAR": 0.0047754701, "MEAN_MOTION_DOT": 0.00018255, "MEAN_MOTION_DDOT": 0}, "tle": {"line1": "1 30859U 99025AWV 25347.39869326  .00018255  00000+0  47755-2 0  9997", "line2": "2 30859  98.9223  37.5581 0030986  28.7881 331.5013 14.49096664970448"}}, "geometry": {"type": "Point", "coordinates": [18.80359852314221, 65.63859791210287]}}, {"type": "Feature", "properties": {"norad_id": 30860, "name": "FENGYUN 1C DEB", "group": "fengyun-1c-debris", "lat": 75.78105729739156, "lon": -79.42047140839823, "alt_km": 794.527954092985, "timestamp": "2025-12-14T20:40:32.050882+00:00", "meta": {"OBJECT_NAME": "FENGYUN 1C DEB", "OBJECT_ID": "1999-025AWW", "EPOCH": "2025-12-13T15:33:47.967840", "MEAN_MOTION": 14.25507444, "ECCENTRICITY": 0.00402236, "INCLINATION": 98.9053, "RA_OF_ASC_NODE": 61.1217, "ARG_OF_PERICENTER": 184.8586, "MEAN_ANOMALY": 175.2208, "EPHEMERIS_TYPE": 0, "CLASSIFICATION_TYPE": "U", "NORAD_CAT_ID": 30860, "ELEMENT_SET_NO": 999, "REV_AT_EPOCH": 96529, "BSTAR": 0.0021002327, "MEAN_MOTION_DOT": 4.964e-05, "MEAN_MOTION_DDOT": 0}, "tle": {"line1": "1 30860U 99025AWW 25347.64847185  .00004964  00000+0  21002-2 0  9995", "line2": "2 30860  98.9053  61.1217 0040223 184.8586 175.2208 14.25507444965294"}}, "geometry": {"type": "Point", "coordinates": [-79.42047140839823, 75.78105729739156]}}, {"type": "Feature", "properties": {"norad_id": 30862, "name": "FENGYUN 1C DEB", "group": "fengyun-1c-debris", "lat": 35.29373138197791, "lon": 73.32147009348274, "alt_km": 765.2348879372485, "timestamp": "2025-12-14T20:40:32.050892+00:00", "meta": {"OBJECT_NAME": "FENGYUN 1C DEB", "OBJECT_ID": "1999-025AWY", "EPOCH": "2025-12-14T05:40:16.842720", "MEAN_MOTION": 14.43118996, "ECCENTRICITY": 0.00526232, "INCLINATION": 98.9595, "RA_OF_ASC_NODE": 79.0764, "ARG_OF_PERICENTER": 159.3048, "MEAN_ANOMALY": 231.0039, "EPHEMERIS_TYPE": 0, "CLASSIFICATION_TYPE": "U", "NORAD_CAT_ID": 30862, "ELEMENT_SET_NO": 999, "REV_AT_EPOCH": 96741, "BSTAR": 0.0036119455, "MEAN_MOTION_DOT": 0.00012301, "MEAN_MOTION_DDOT": 0}, "tle": {"line1": "1 30862U 99025AWY 25348.23630605  .00012301  00000+0  36119-2 0  9999", "line2": "2 30862  98.9595  79.0764 0052623 159.3048 231.0039 14.43118996967418"}}, "geometry": {"type": "Point", "coordinates": [73.32147009348274, 35.29373138197791]}}, {"type": "Feature", "properties": {"norad_id": 30863, "name": "FENGYUN 1C DEB", "group": "fengyun-1c-debris", "lat": -12.872962943932261, "lon": -2.6755339260449684, "alt_km": 1054.9370631681495, "timestamp": "2025-12-14T20:40:32.050902+00:00", "meta": {"OBJECT_NAME": "FENGYUN 1C DEB", "OBJECT_ID": "1999-025AWZ", "EPOCH": "2025-12-12T19:18:29.005632", "MEAN_MOTION": 12.4051166, "ECCENTRICITY": 0.08787853, "INCLINATION": 99.1228, "RA_OF_ASC_NODE": 177.858, "ARG_OF_PERICENTER": 250.2781, "MEAN_ANOMALY": 128.5224, "EPHEMERIS_TYPE": 0, "CLASSIFICATION_TYPE": "U", "NORAD_CAT_ID": 30863, "ELEMENT_SET_NO": 999, "REV_AT_EPOCH": 59741, "BSTAR": 0.0059104409, "MEAN_MOTION_DOT": 3.087e-05, "MEAN_MOTION_DDOT": 0}, "tle": {"line1": "1 30863U 99025AWZ 25346.80450238  .00003087  00000+0  59104-2 0  9993", "line2": "2 30863  99.1228 177.8580 0878785 250.2781 128.5224 12.40511660597413"}}, "geometry": {"type": "Point", "coordinates": [-2.6755339260449684, -12.872962943932261]}}, {"type": "Feature", "properties": {"norad_id": 30867, "name": "FENGYUN 1C DEB", "group": "fengyun-1c-debris", "lat": -5.069619818778944, "lon": 74.7848868919626, "alt_km": 839.4812835548391, "timestamp": "2025-12-14T20:40:32.050912+00:00", "meta": {"OBJECT_NAME": "FENGYUN 1C DEB", "OBJECT_ID": "1999-025AXD", "EPOCH": "2025-12-14T05:24:36.211968", "MEAN_MOTION": 14.2801987, "ECCENTRICITY": 0.00543604, "INCLINATION": 97.8765, "RA_OF_ASC_NODE": 254.9146, "ARG_OF_PERICENTER": 351.2975, "MEAN_ANOMALY": 165.8425, "EPHEMERIS_TYPE": 0, "CLASSIFICATION_TYPE": "U", "NORAD_CAT_ID": 30867, "ELEMENT_SET_NO": 999, "REV_AT_EPOCH": 96558, "BSTAR": 0.0026278648, "MEAN_MOTION_DOT": 6.592e-05, "MEAN_MOTION_DDOT": 0}, "tle": {"line1": "1 30867U 99025AXD 25348.22541912  .00006592  00000+0  26279-2 0  9996", "line2": "2 30867  97.8765 254.9146 0054360 351.2975 165.8425 14.28019870965583"}}, "geometry": {"type": "Point", "coordinates": [74.7848868919626, -5.069619818778944]}}, {"type": "Feature", "properties": {"norad_id": 30868, "name": "FENGYUN 1C DEB", "group": "fengyun-1c-debris", "lat": -71.39741423769792, "lon": 21.150441015660146, "alt_km": 794.6869198573586, "timestamp": "2025-12-14T20:40:32.050923+00:00", "meta": {"OBJECT_NAME": "FENGYUN 1C DEB", "OBJECT_ID": "1999-025AXE", "EPOCH": "2025-12-12T21:50:24.056160", "MEAN_MOTION": 14.11120343, "ECCENTRICITY": 0.01351602, "INCLINATION": 98.2634, "RA_OF_ASC_NODE": 224.9327, "ARG_OF_PERICENTER": 212.4536, "MEAN_ANOMALY": 211.6895, "EPHEMERIS_TYPE": 0, "CLASSIFICATION_TYPE": "U", "NORAD_CAT_ID": 30868, "ELEMENT_SET_NO": 999, "REV_AT_EPOCH": 96713, "BSTAR": 0.00019808648, "MEAN_MOTION_DOT": 3.49e-06, "MEAN_MOTION_DDOT": 0}, "tle": {"line1": "1 30868U 99025AXE 25346.91000065  .00000349  00000+0  19809-3 0  9996", "line2": "2 30868  98.2634 224.9327 0135160 212.4536 211.6895 14.11120343967135"}}, "geometry": {"type": "Point", "coordinates": [21.150441015660146, -71.39741423769792]}}, {"type": "Feature", "properties": {"norad_id": 30872, "name": "FENGYUN 1C DEB", "group": "fengyun-1c-debris", "lat": -78.95365422789719, "lon": 97.43808656812423, "alt_km": 775.7119164813239, "timestamp": "2025-12-14T20:40:32.050932+00:00", "meta": {"OBJECT_NAME": "FENGYUN 1C DEB", "OBJECT_ID": "1999-025AXJ", "EPOCH": "2025-12-14T02:50:40.608384", "MEAN_MOTION": 14.39434229, "ECCENTRICITY": 0.00407271, "INCLINATION": 99.1933, "RA_OF_ASC_NODE": 40.5867, "ARG_OF_PERICENTER": 24.6384, "MEAN_ANOMALY": 4.1629, "EPHEMERIS_TYPE": 0, "CLASSIFICATION_TYPE": "U", "NORAD_CAT_ID": 30872, "ELEMENT_SET_NO": 999, "REV_AT_EPOCH": 97756, "BSTAR": 0.0010146799, "MEAN_MOTION_DOT": 3.141e-05, "MEAN_MOTION_DDOT": 0}, "tle": {"line1": "1 30872U 99025AXJ 25348.11852556  .00003141  00000+0  10147-2 0  9993", "line2": "2 30872  99.1933  40.5867 0040727  24.6384   4.1629 14.39434229977560"}}, "geometry": {"type": "Point", "coordinates": [97.43808656812423, -78.95365422789719]}}, {"type": "Feature", "properties": {"norad_id": 30873, "name": "FENGYUN 1C DEB", "group": "fengyun-1c-debris", "lat": 47.70524395555212, "lon": -20.478823139385486, "alt_km": 868.9663675938546, "timestamp": "2025-12-14T20:40:32.050942+00:00", "meta": {"OBJECT_NAME": "FENGYUN 1C DEB", "OBJECT_ID": "1999-025AXK", "EPOCH": "2025-12-13T22:26:58.960032", "MEAN_MOTION": 14.19139144, "ECCENTRICITY": 0.01077441, "INCLINATION": 98.6117, "RA_OF_ASC_NODE": 348.2097, "ARG_OF_PERICENTER": 285.2656, "MEAN_ANOMALY": 73.663, "EPHEMERIS_TYPE": 0, "CLASSIFICATION_TYPE": "U", "NORAD_CAT_ID": 30873, "ELEMENT_SET_NO": 999, "REV_AT_EPOCH": 97209, "BSTAR": 0.00028820996, "MEAN_MOTION_DOT": 5.95e-06, "MEAN_MOTION_DDOT": 0}, "tle": {"line1": "1 30873U 99025AXK 25347.93540463  .00000595  00000+0  28821-3 0  9993", "line2": "2 30873  98.6117 348.2097 0107744 285.2656  73.6630 14.19139144972094"}}, "geometry": {"type": "Point", "coordinates": [-20.478823139385486, 47.70524395555212]}}, {"type": "Feature", "properties": {"norad_id": 30874, "name": "FENGYUN 1C DEB", "group": "fengyun-1c-debris", "lat": -32.62054955691798, "lon": 24.87221268869415, "alt_km": 820.8882031149169, "timestamp": "2025-12-14T20:40:32.050952+00:00", "meta": {"OBJECT_NAME": "FENGYUN 1C DEB", "OBJECT_ID": "1999-025AXL", "EPOCH": "2025-12-14T00:48:37.359936", "MEAN_MOTION": 14.19652191, "ECCENTRICITY": 0.00419478, "INCLINATION": 98.4905, "RA_OF_ASC_NODE": 18.5923, "ARG_OF_PERICENTER": 36.9171, "MEAN_ANOMALY": 22.7478, "EPHEMERIS_TYPE": 0, "CLASSIFICATION_TYPE": "U", "NORAD_CAT_ID": 30874, "ELEMENT_SET_NO": 999, "REV_AT_EPOCH": 97039, "BSTAR": 0.00056894289, "MEAN_MOTION_DOT": 1.171e-05, "MEAN_MOTION_DDOT": 0}, "tle": {"line1": "1 30874U 99025AXL 25348.03376574  .00001171  00000+0  56894-3 0  9998", "line2": "2 30874  98.4905  18.5923 0041947  36.9171  22.7478 14.19652191970396"}}, "geometry": {"type": "Point", "coordinates": [24.87221268869415, -32.62054955691798]}}, {"type": "Feature", "properties": {"norad_id": 30876, "name": "FENGYUN 1C DEB", "group": "fengyun-1c-debris", "lat": -53.76563873973903, "lon": 141.64122794831601, "alt_km": 864.9094295426521, "timestamp": "2025-12-14T20:40:32.050962+00:00", "meta": {"OBJECT_NAME": "FENGYUN 1C DEB", "OBJECT_ID": "1999-025AXN", "EPOCH": "2025-12-13T11:34:06.997152", "MEAN_MOTION": 13.99168568, "ECCENTRICITY": 0.00664066, "INCLINATION": 98.8101, "RA_OF_ASC_NODE": 332.5326, "ARG_OF_PERICENTER": 275.4482, "MEAN_ANOMALY": 215.135, "EPHEMERIS_TYPE": 0, "CLASSIFICATION_TYPE": "U", "NORAD_CAT_ID": 30876, "ELEMENT_SET_NO": 999, "REV_AT_EPOCH": 95720, "BSTAR": 0.00058558551, "MEAN_MOTION_DOT": 8.22e-06, "MEAN_MOTION_DDOT": 0}, "tle": {"line1": "1 30876U 99025AXN 25347.48202543  .00000822  00000+0  58559-3 0  9994", "line2": "2 30876  98.8101 332.5326 0066406 275.4482 215.1350 13.99168568957207"}}, "geometry": {"type": "Point", "coordinates": [141.64122794831601, -53.76563873973903]}}]}